[{"OBJECT_ID":"2007-012D","OBJECT_NAME":"SL-24 DEB","NORAD_CAT_ID":"31120","OBJECT_TYPE":"DEBRIS","PERIOD":"97.527","INCLINATION":"97.6799","ECCENTRICITY":"0.00062570","MEAN_MOTION":"14.76513425","TLE_LINE1":"1 31120U 07012D   21271.43121314  .00000313  00000-0  51743-4 0  9990","TLE_LINE2":"2 31120  97.6799 270.0695 0006257 322.4766  37.6008 14.76513425777682"},{"OBJECT_ID":"2003-049D","OBJECT_NAME":"CZ-4 DEB","NORAD_CAT_ID":"31131","OBJECT_TYPE":"DEBRIS","PERIOD":"100.680","INCLINATION":"98.7822","ECCENTRICITY":"0.01358200","MEAN_MOTION":"14.30275584","TLE_LINE1":"1 31131U 03049D   21270.78354378  .00000375  00000-0  14697-3 0  9997","TLE_LINE2":"2 31131  98.7822 237.7000 0135820  96.3466  20.1901 14.30275584752702"},{"OBJECT_ID":"1995-021D","OBJECT_NAME":"ERS 2 DEB","NORAD_CAT_ID":"31137","OBJECT_TYPE":"DEBRIS","PERIOD":"99.912","INCLINATION":"98.5177","ECCENTRICITY":"0.00019230","MEAN_MOTION":"14.41272061","TLE_LINE1":"1 31137U 95021D   21271.40391142  .00000548  00000-0  18326-3 0  9999","TLE_LINE2":"2 31137  98.5177 236.2782 0001923 227.7147 283.7789 14.41272061923410"},{"OBJECT_ID":"2003-049E","OBJECT_NAME":"CZ-4 DEB","NORAD_CAT_ID":"31139","OBJECT_TYPE":"DEBRIS","PERIOD":"99.377","INCLINATION":"98.3277","ECCENTRICITY":"0.00918460","MEAN_MOTION":"14.49024814","TLE_LINE1":"1 31139U 03049E   21272.36524456  .00000693  00000-0  18493-3 0  9998","TLE_LINE2":"2 31139  98.3277 237.2687 0091846 161.7330 198.7199 14.49024814762061"},{"OBJECT_ID":"1966-040AQ","OBJECT_NAME":"NIMBUS 2 DEB","NORAD_CAT_ID":"31142","OBJECT_TYPE":"DEBRIS","PERIOD":"107.181","INCLINATION":"100.5842","ECCENTRICITY":"0.00586750","MEAN_MOTION":"13.43527462","TLE_LINE1":"1 31142U 66040AQ  21271.53926191  .00000573  00000-0  10709-2 0  9990","TLE_LINE2":"2 31142 100.5842 172.1409 0058675 330.0689 153.3227 13.43527462711309"},{"OBJECT_ID":"1999-025BGY","OBJECT_NAME":"FENGYUN 1C DEB","NORAD_CAT_ID":"31146","OBJECT_TYPE":"DEBRIS","PERIOD":"101.320","INCLINATION":"99.1403","ECCENTRICITY":"0.02292850","MEAN_MOTION":"14.21234471","TLE_LINE1":"1 31146U 99025BGY 21272.07532999  .00000272  00000-0  11515-3 0  9995","TLE_LINE2":"2 31146  99.1403 134.0029 0229285 255.4165 102.1485 14.21234471749895"},{"OBJECT_ID":"1999-025BGZ","OBJECT_NAME":"FENGYUN 1C DEB","NORAD_CAT_ID":"31147","OBJECT_TYPE":"DEBRIS","PERIOD":"96.588","INCLINATION":"99.1524","ECCENTRICITY":"0.01079980","MEAN_MOTION":"14.90861908","TLE_LINE1":"1 31147U 99025BGZ 21272.31393159  .00007908  00000-0  72478-3 0  9994","TLE_LINE2":"2 31147  99.1524 207.2057 0107998 129.9098  20.6539 14.90861908772987"},{"OBJECT_ID":"1999-025BHA","OBJECT_NAME":"FENGYUN 1C DEB","NORAD_CAT_ID":"31148","OBJECT_TYPE":"DEBRIS","PERIOD":"100.492","INCLINATION":"98.9456","ECCENTRICITY":"0.01574390","MEAN_MOTION":"14.32948688","TLE_LINE1":"1 31148U 99025BHA 21272.23707423  .00000614  00000-0  21262-3 0  9991","TLE_LINE2":"2 31148  98.9456  78.7456 0157439 251.1090 107.2967 14.32948688755028"},{"OBJECT_ID":"1999-025BHB","OBJECT_NAME":"FENGYUN 1C DEB","NORAD_CAT_ID":"31149","OBJECT_TYPE":"DEBRIS","PERIOD":"98.678","INCLINATION":"99.1417","ECCENTRICITY":"0.01102580","MEAN_MOTION":"14.59295190","TLE_LINE1":"1 31149U 99025BHB 21271.24746458  .00003098  00000-0  61403-3 0  9993","TLE_LINE2":"2 31149  99.1417   4.3985 0110258  61.1336 325.3575 14.59295190762041"},{"OBJECT_ID":"1999-025BHC","OBJECT_NAME":"FENGYUN 1C DEB","NORAD_CAT_ID":"31150","OBJECT_TYPE":"DEBRIS","PERIOD":"102.019","INCLINATION":"98.7960","ECCENTRICITY":"0.00149420","MEAN_MOTION":"14.11504232","TLE_LINE1":"1 31150U 99025BHC 21271.35087488  .00000044  00000-0  48376-4 0  9991","TLE_LINE2":"2 31150  98.7960 299.6265 0014942 204.6870 167.4596 14.11504232746151"},{"OBJECT_ID":"1999-025BHD","OBJECT_NAME":"FENGYUN 1C DEB","NORAD_CAT_ID":"31151","OBJECT_TYPE":"DEBRIS","PERIOD":"102.367","INCLINATION":"99.0719","ECCENTRICITY":"0.00760010","MEAN_MOTION":"14.06708928","TLE_LINE1":"1 31151U 99025BHD 21271.30504097  .00001541  00000-0  93046-3 0  9993","TLE_LINE2":"2 31151  99.0719 226.8379 0076001  35.4755 325.1433 14.06708928742614"},{"OBJECT_ID":"1999-025BHE","OBJECT_NAME":"FENGYUN 1C DEB","NORAD_CAT_ID":"31152","OBJECT_TYPE":"DEBRIS","PERIOD":"100.392","INCLINATION":"98.3593","ECCENTRICITY":"0.01312770","MEAN_MOTION":"14.34380905","TLE_LINE1":"1 31152U 99025BHE 21271.31364343  .00000025  00000-0  23178-4 0  9999","TLE_LINE2":"2 31152  98.3593 283.0977 0131277 295.0083  76.7017 14.34380905760148"},{"OBJECT_ID":"1999-025BHG","OBJECT_NAME":"FENGYUN 1C DEB","NORAD_CAT_ID":"31154","OBJECT_TYPE":"DEBRIS","PERIOD":"98.946","INCLINATION":"98.5665","ECCENTRICITY":"0.00701600","MEAN_MOTION":"14.55332167","TLE_LINE1":"1 31154U 99025BHG 21271.46289448  .00002635  00000-0  59912-3 0  9992","TLE_LINE2":"2 31154  98.5665 354.7677 0070160  62.9044 297.9287 14.55332167367594"},{"OBJECT_ID":"1999-025BHH","OBJECT_NAME":"FENGYUN 1C DEB","NORAD_CAT_ID":"31155","OBJECT_TYPE":"DEBRIS","PERIOD":"102.865","INCLINATION":"99.1529","ECCENTRICITY":"0.01028970","MEAN_MOTION":"13.99895499","TLE_LINE1":"1 31155U 99025BHH 21271.13378229  .00000748  00000-0  51666-3 0  9994","TLE_LINE2":"2 31155  99.1529 319.0317 0102897 296.7108 127.0728 13.99895499740369"},{"OBJECT_ID":"1999-025BHK","OBJECT_NAME":"FENGYUN 1C DEB","NORAD_CAT_ID":"31157","OBJECT_TYPE":"DEBRIS","PERIOD":"101.417","INCLINATION":"98.4807","ECCENTRICITY":"0.01051730","MEAN_MOTION":"14.19885364","TLE_LINE1":"1 31157U 99025BHK 21271.34731750  .00000150  00000-0  84895-4 0  9999","TLE_LINE2":"2 31157  98.4807 300.2290 0105173 113.2283 313.9881 14.19885364751643"},{"OBJECT_ID":"1999-025BHL","OBJECT_NAME":"FENGYUN 1C DEB","NORAD_CAT_ID":"31158","OBJECT_TYPE":"DEBRIS","PERIOD":"101.531","INCLINATION":"98.8934","ECCENTRICITY":"0.00624310","MEAN_MOTION":"14.18291124","TLE_LINE1":"1 31158U 99025BHL 21271.92062388  .00000776  00000-0  39094-3 0  9992","TLE_LINE2":"2 31158  98.8934 323.4035 0062431 149.2993 211.1858 14.18291124749575"},{"OBJECT_ID":"1999-025BHM","OBJECT_NAME":"FENGYUN 1C DEB","NORAD_CAT_ID":"31159","OBJECT_TYPE":"DEBRIS","PERIOD":"98.288","INCLINATION":"97.6423","ECCENTRICITY":"0.03252900","MEAN_MOTION":"14.65089091","TLE_LINE1":"1 31159U 99025BHM 21272.15199071  .00004519  00000-0  38632-3 0  9995","TLE_LINE2":"2 31159  97.6423 246.9456 0325290  47.9287 314.9103 14.65089091769473"},{"OBJECT_ID":"1999-025BHN","OBJECT_NAME":"FENGYUN 1C DEB","NORAD_CAT_ID":"31160","OBJECT_TYPE":"DEBRIS","PERIOD":"102.941","INCLINATION":"99.2954","ECCENTRICITY":"0.00592200","MEAN_MOTION":"13.98858195","TLE_LINE1":"1 31160U 99025BHN 21272.35795415  .00000036  00000-0  55565-4 0  9998","TLE_LINE2":"2 31160  99.2954 302.7309 0059220 145.8261 214.6736 13.98858195742054"},{"OBJECT_ID":"1999-025BHP","OBJECT_NAME":"FENGYUN 1C DEB","NORAD_CAT_ID":"31161","OBJECT_TYPE":"DEBRIS","PERIOD":"102.352","INCLINATION":"98.9126","ECCENTRICITY":"0.00700950","MEAN_MOTION":"14.06904426","TLE_LINE1":"1 31161U 99025BHP 21271.37844477  .00000269  00000-0  18353-3 0  9994","TLE_LINE2":"2 31161  98.9126 306.3179 0070095 354.2868   5.7493 14.06904426744846"},{"OBJECT_ID":"1999-025BHR","OBJECT_NAME":"FENGYUN 1C DEB","NORAD_CAT_ID":"31163","OBJECT_TYPE":"DEBRIS","PERIOD":"100.972","INCLINATION":"99.0019","ECCENTRICITY":"0.00591440","MEAN_MOTION":"14.26131759","TLE_LINE1":"1 31163U 99025BHR 21263.66351778  .00000218  00000-0  10856-3 0  9990","TLE_LINE2":"2 31163  99.0019  57.2903 0059144  42.6140 317.9605 14.26131759426967"},{"OBJECT_ID":"1999-025BHT","OBJECT_NAME":"FENGYUN 1C DEB","NORAD_CAT_ID":"31165","OBJECT_TYPE":"DEBRIS","PERIOD":"99.428","INCLINATION":"98.8536","ECCENTRICITY":"0.00994690","MEAN_MOTION":"14.48286367","TLE_LINE1":"1 31165U 99025BHT 21271.04794469  .00001210  00000-0  31794-3 0  9998","TLE_LINE2":"2 31165  98.8536 203.9933 0099469 229.6907 142.0682 14.48286367763792"},{"OBJECT_ID":"1999-025BHU","OBJECT_NAME":"FENGYUN 1C DEB","NORAD_CAT_ID":"31166","OBJECT_TYPE":"DEBRIS","PERIOD":"100.251","INCLINATION":"98.7741","ECCENTRICITY":"0.00173340","MEAN_MOTION":"14.36398372","TLE_LINE1":"1 31166U 99025BHU 21270.76178626  .00002075  00000-0  72293-3 0  9997","TLE_LINE2":"2 31166  98.7741  13.9851 0017334 294.8473  65.0910 14.36398372755315"},{"OBJECT_ID":"1999-025BHV","OBJECT_NAME":"FENGYUN 1C DEB","NORAD_CAT_ID":"31167","OBJECT_TYPE":"DEBRIS","PERIOD":"98.848","INCLINATION":"99.0180","ECCENTRICITY":"0.00551450","MEAN_MOTION":"14.56779845","TLE_LINE1":"1 31167U 99025BHV 21271.41658296  .00003806  00000-0  84518-3 0  9993","TLE_LINE2":"2 31167  99.0180 258.7102 0055145 356.5363   3.5444 14.56779845760361"},{"OBJECT_ID":"1999-025BHW","OBJECT_NAME":"FENGYUN 1C DEB","NORAD_CAT_ID":"31168","OBJECT_TYPE":"DEBRIS","PERIOD":"99.132","INCLINATION":"98.9708","ECCENTRICITY":"0.01390290","MEAN_MOTION":"14.52614011","TLE_LINE1":"1 31168U 99025BHW 21271.46832397  .00000676  00000-0  15813-3 0  9999","TLE_LINE2":"2 31168  98.9708 273.5516 0139029  62.5098 299.0150 14.52614011767398"},{"OBJECT_ID":"1999-025BHX","OBJECT_NAME":"FENGYUN 1C DEB","NORAD_CAT_ID":"31169","OBJECT_TYPE":"DEBRIS","PERIOD":"102.294","INCLINATION":"99.1135","ECCENTRICITY":"0.00776450","MEAN_MOTION":"14.07702879","TLE_LINE1":"1 31169U 99025BHX 21271.37763129  .00001254  00000-0  74720-3 0  9991","TLE_LINE2":"2 31169  99.1135 236.8117 0077645  29.2712 331.2774 14.07702879353766"},{"OBJECT_ID":"1999-025BHZ","OBJECT_NAME":"FENGYUN 1C DEB","NORAD_CAT_ID":"31171","OBJECT_TYPE":"DEBRIS","PERIOD":"102.418","INCLINATION":"98.0664","ECCENTRICITY":"0.02240220","MEAN_MOTION":"14.06002069","TLE_LINE1":"1 31171U 99025BHZ 21272.29063468  .00001651  00000-0  81991-3 0  9994","TLE_LINE2":"2 31171  98.0664  27.4788 0224022 120.8365 270.4999 14.06002069741191"}]